$$SOE
2460714.500000000, A.D. 2025-Feb-08 00:00:00.0000, 4.361476594542664E+08, -1.699210650082658E+08, -3.735171129977971E+07,
2460721.500000000, A.D. 2025-Feb-15 00:00:00.0000, 4.396851045597320E+08, -1.603587004230898E+08, -3.614929765663433E+07,
2460728.500000000, A.D. 2025-Feb-22 00:00:00.0000, 4.430161872470483E+08, -1.507211223481272E+08, -3.492991674293108E+07,
2460735.500000000, A.D. 2025-Mar-01 00:00:00.0000, 4.461391412987572E+08, -1.410127838309225E+08, -3.369412493564468E+07,
2460742.500000000, A.D. 2025-Mar-08 00:00:00.0000, 4.490523019003995E+08, -1.312381819635264E+08, -3.244248802567194E+07,
2460749.500000000, A.D. 2025-Mar-15 00:00:00.0000, 4.517541069180442E+08, -1.214018536991639E+08, -3.117558078081137E+07,
2460756.500000000, A.D. 2025-Mar-22 00:00:00.0000, 4.542430959085051E+08, -1.115083730383722E+08, -2.989398641242208E+07,
2460763.500000000, A.D. 2025-Mar-29 00:00:00.0000, 4.565179104365880E+08, -1.015623504287442E+08, -2.859829634311274E+07,
2460770.500000000, A.D. 2025-Apr-05 00:00:00.0000, 4.585772960217732E+08, -9.156843124083856E+07, -2.728911004923211E+07,
2460777.500000000, A.D. 2025-Apr-12 00:00:00.0000, 4.604201037870477E+08, -8.153129321753165E+07, -2.596703479351369E+07,
2460784.500000000, A.D. 2025-Apr-19 00:00:00.0000, 4.620452916215298E+08, -7.145564377991703E+07, -2.463268530326261E+07,
2460791.500000000, A.D. 2025-Apr-26 00:00:00.0000, 4.634519251271927E+08, -6.134621739456543E+07, -2.328668343610588E+07,
2460798.500000000, A.D. 2025-May-03 00:00:00.0000, 4.646391784620342E+08, -5.120777298471048E+07, -2.192965784264177E+07,
2460805.500000000, A.D. 2025-May-10 00:00:00.0000, 4.656063351071038E+08, -4.104509137849672E+07, -2.056224362834425E+07,
2460812.500000000, A.D. 2025-May-17 00:00:00.0000, 4.663527885931308E+08, -3.086297283734436E+07, -1.918508202185908E+07,
2460819.500000000, A.D. 2025-May-24 00:00:00.0000, 4.668780433595050E+08, -2.066623472128695E+07, -1.779882007049679E+07,
2460826.500000000, A.D. 2025-May-31 00:00:00.0000, 4.671817161613307E+08, -1.045970898259155E+07, -1.640411037620173E+07,
2460833.500000000, A.D. 2025-Jun-07 00:00:00.0000, 4.672635376217356E+08, -2.482382839540923E+05, -1.500161073702553E+07,
2460840.500000000, A.D. 2025-Jun-14 00:00:00.0000, 4.671233515659387E+08, 9.963328590714047E+06, -1.359198353193283E+07,
2460847.500000000, A.D. 2025-Jun-21 00:00:00.0000, 4.667611133552230E+08, 2.017013875805335E+07, -1.217589522823029E+07,
2460854.500000000, A.D. 2025-Jun-28 00:00:00.0000, 4.661768903473941E+08, 3.036733645077188E+07, -1.075401615467090E+07,
2460861.500000000, A.D. 2025-Jul-05 00:00:00.0000, 4.653708629654762E+08, 4.055006558097182E+07, -9.327020225113086E+06,
2460868.500000000, A.D. 2025-Jul-12 00:00:00.0000, 4.643433251830226E+08, 5.071347284309975E+07, -7.895584569537709E+06,
2460875.500000000, A.D. 2025-Jul-19 00:00:00.0000, 4.630946846144103E+08, 6.085271077820364E+07, -6.460389137088528E+06,
2460882.500000000, A.D. 2025-Jul-26 00:00:00.0000, 4.616254624181055E+08, 7.096294074013627E+07, -5.022116295339618E+06,
2460889.500000000, A.D. 2025-Aug-02 00:00:00.0000, 4.599362930764993E+08, 8.103933578357425E+07, -3.581450430354353E+06,
2460896.500000000, A.D. 2025-Aug-09 00:00:00.0000, 4.580279240752417E+08, 9.107708345830116E+07, -2.139077551161036E+06,
2460903.500000000, A.D. 2025-Aug-16 00:00:00.0000, 4.559012155603043E+08, 1.010713884455491E+08, -6.956849110630006E+05,
2460910.500000000, A.D. 2025-Aug-23 00:00:00.0000, 4.535571402675984E+08, 1.110174750507145E+08, 7.480393285781816E+05,
2460917.500000000, A.D. 2025-Aug-30 00:00:00.0000, 4.509967840550495E+08, 1.209105902630686E+08, 2.191406420089453E+06,
2460924.500000000, A.D. 2025-Sep-06 00:00:00.0000, 4.482213456186775E+08, 1.307460083802381E+08, 3.633727548538901E+06,
2460931.500000000, A.D. 2025-Sep-13 00:00:00.0000, 4.452321337241479E+08, 1.405190347129881E+08, 5.074314498578258E+06,
2460938.500000000, A.D. 2025-Sep-20 00:00:00.0000, 4.420305652295135E+08, 1.502250067220299E+08, 6.512480034344368E+06,
2460945.500000000, A.D. 2025-Sep-27 00:00:00.0000, 4.386181649568478E+08, 1.598592956943267E+08, 7.947538149302594E+06,
2460952.500000000, A.D. 2025-Oct-04 00:00:00.0000, 4.349965653952808E+08, 1.694173094954972E+08, 9.378804414862618E+06,
2460959.500000000, A.D. 2025-Oct-11 00:00:00.0000, 4.311675058620874E+08, 1.788944954528980E+08, 1.080559638472996E+07,
2460966.500000000, A.D. 2025-Oct-18 00:00:00.0000, 4.271328314059144E+08, 1.882863430924870E+08, 1.222723400618498E+07,
2460973.500000000, A.D. 2025-Oct-25 00:00:00.0000, 4.228944915919768E+08, 1.975883867382323E+08, 1.364304002591163E+07,
2460980.500000000, A.D. 2025-Nov-01 00:00:00.0000, 4.184545392090859E+08, 2.067962079877748E+08, 1.505234038746656E+07,
2460987.500000000, A.D. 2025-Nov-08 00:00:00.0000, 4.138151289339362E+08, 2.159054380316305E+08, 1.645446461406878E+07,
2460994.500000000, A.D. 2025-Nov-15 00:00:00.0000, 4.089785161021721E+08, 2.249117597563390E+08, 1.784874615779173E+07,
2461001.500000000, A.D. 2025-Nov-22 00:00:00.0000, 4.039470559912820E+08, 2.338109098501403E+08, 1.923452269561420E+07,
2461008.500000000, A.D. 2025-Nov-29 00:00:00.0000, 3.987232034635389E+08, 2.425986820435328E+08, 2.061113647839908E+07,
2461015.500000000, A.D. 2025-Dec-06 00:00:00.0000, 3.933095106916733E+08, 2.512709313471452E+08, 2.197793493003356E+07,
2461022.500000000, A.D. 2025-Dec-13 00:00:00.0000, 3.877086234041790E+08, 2.598235759168887E+08, 2.333427118143477E+07,
2461029.500000000, A.D. 2025-Dec-20 00:00:00.0000, 3.819232791476178E+08, 2.682525975673609E+08, 2.467950430224279E+07,
2461036.500000000, A.D. 2025-Dec-27 00:00:00.0000, 3.759563064931973E+08, 2.765540435217203E+08, 2.601299953985234E+07,
2461043.500000000, A.D. 2026-Jan-03 00:00:00.0000, 3.698106237293251E+08, 2.847240287809345E+08, 2.733412864895654E+07,
2461050.500000000, A.D. 2026-Jan-10 00:00:00.0000, 3.634892371517041E+08, 2.927587384325783E+08, 2.864227024581882E+07,
2461057.500000000, A.D. 2026-Jan-17 00:00:00.0000, 3.569952391855529E+08, 3.006544298068088E+08, 2.993681015824218E+07,
2461064.500000000, A.D. 2026-Jan-24 00:00:00.0000, 3.503318064199160E+08, 3.084074345015171E+08, 3.121714176574987E+07,
2461071.500000000, A.D. 2026-Jan-31 00:00:00.0000, 3.435021975795570E+08, 3.160141602687840E+08, 3.248266632705845E+07,
2461078.500000000, A.D. 2026-Feb-07 00:00:00.0000, 3.365097514980993E+08, 3.234710927051072E+08, 3.373279328440803E+07,
2461085.500000000, A.D. 2026-Feb-14 00:00:00.0000, 3.293578853480046E+08, 3.307747967302424E+08, 3.496694052024925E+07,
2461092.500000000, A.D. 2026-Feb-21 00:00:00.0000, 3.220500935180957E+08, 3.379219184315413E+08, 3.618453457783240E+07,
2461099.500000000, A.D. 2026-Feb-28 00:00:00.0000, 3.145899460560905E+08, 3.449091884255331E+08, 3.738501103912796E+07,
2461106.500000000, A.D. 2026-Mar-07 00:00:00.0000, 3.069810846181079E+08, 3.517334247857914E+08, 3.856781508937371E+07,
2461113.500000000, A.D. 2026-Mar-14 00:00:00.0000, 2.992272187043539E+08, 3.583915332059621E+08, 3.973240182343230E+07,
2461120.500000000, A.D. 2026-Mar-21 00:00:00.0000, 2.913321239687716E+08, 3.648805072946907E+08, 4.087823636715825E+07,
2461127.500000000, A.D. 2026-Mar-28 00:00:00.0000, 2.832996405951908E+08, 3.711974300278208E+08, 4.200479408158766E+07,
2461134.500000000, A.D. 2026-Apr-04 00:00:00.0000, 2.751336711370953E+08, 3.773394753899171E+08, 4.311156082597841E+07,
2461141.500000000, A.D. 2026-Apr-11 00:00:00.0000, 2.668381780957298E+08, 3.833039098439656E+08, 4.419803322488481E+07,
2461148.500000000, A.D. 2026-Apr-18 00:00:00.0000, 2.584171813969537E+08, 3.890880936225853E+08, 4.526371892409533E+07,
2461155.500000000, A.D. 2026-Apr-25 00:00:00.0000, 2.498747558148166E+08, 3.946894818565621E+08, 4.630813683273822E+07,
2461162.500000000, A.D. 2026-May-02 00:00:00.0000, 2.412150283758704E+08, 4.001056255124837E+08, 4.733081734679854E+07,
2461169.500000000, A.D. 2026-May-09 00:00:00.0000, 2.324421758727823E+08, 4.053341720742903E+08, 4.833130253764689E+07,
2461176.500000000, A.D. 2026-May-16 00:00:00.0000, 2.235604228692608E+08, 4.103728661077474E+08, 4.930914628251642E+07,
2461183.500000000, A.D. 2026-May-23 00:00:00.0000, 2.145740402523069E+08, 4.152195507302835E+08, 5.026391441576666E+07,
2461190.500000000, A.D. 2026-May-30 00:00:00.0000, 2.054873422562938E+08, 4.198721703036857E+08, 5.119518511717597E+07,
2461197.500000000, A.D. 2026-Jun-06 00:00:00.0000, 1.963046816417335E+08, 4.243287710747474E+08, 5.210254929845506E+07,
2461204.500000000, A.D. 2026-Jun-13 00:00:00.0000, 1.870304466968209E+08, 4.285874999653931E+08, 5.298561066827846E+07,
2461211.500000000, A.D. 2026-Jun-20 00:00:00.0000, 1.776690595645809E+08, 4.326466044391435E+08, 5.384398576068157E+07,
2461218.500000000, A.D. 2026-Jun-27 00:00:00.0000, 1.682249741992593E+08, 4.365044331032001E+08, 5.467730405426878E+07,
2461225.500000000, A.D. 2026-Jul-04 00:00:00.0000, 1.587026739533918E+08, 4.401594362713864E+08, 5.548520811856613E+07,
2461232.500000000, A.D. 2026-Jul-11 00:00:00.0000, 1.491066690513946E+08, 4.436101663567545E+08, 5.626735375319713E+07,
2461239.500000000, A.D. 2026-Jul-18 00:00:00.0000, 1.394414940444368E+08, 4.468552781203830E+08, 5.702341011325431E+07,
2461246.500000000, A.D. 2026-Jul-25 00:00:00.0000, 1.297117052730620E+08, 4.498935287798973E+08, 5.775305981865028E+07,
2461253.500000000, A.D. 2026-Aug-01 00:00:00.0000, 1.199218783875790E+08, 4.527237779304420E+08, 5.845599903895891E+07,
2461260.500000000, A.D. 2026-Aug-08 00:00:00.0000, 1.100766061428729E+08, 4.553449872432855E+08, 5.913193753104514E+07,
2461267.500000000, A.D. 2026-Aug-15 00:00:00.0000, 1.001804968844731E+08, 4.577562203940987E+08, 5.978059862832230E+07,
2461274.500000000, A.D. 2026-Aug-22 00:00:00.0000, 9.023817296740548E+07, 4.599566444440535E+08, 6.040171935134920E+07,
2461281.500000000, A.D. 2026-Aug-29 00:00:00.0000, 8.025426682114238E+07, 4.619455313004678E+08, 6.099505073719731E+07,
$$EOE